NORAD_CAT_ID,OBJECT_NAME,OBJECT_TYPE,EPOCH,MEAN_MOTION,ECCENTRICITY,INCLINATION,RA_OF_ASC_NODE,ARG_OF_PERICENTER,MEAN_ANOMALY,BSTAR,MEAN_MOTION_DOT,MEAN_MOTION_DDOT,TLE_LINE0,TLE_LINE1,TLE_LINE2,SEMIMAJOR_AXIS,PERIOD,APOGEE,PERIGEE,DECAYED
51999.0,STARLINK-3667,PAYLOAD,2023-03-01 21:35:03,15.08832796,6.67e-05,53.2143,294.216,58.1617,301.944,0.0008554,0.00013349,0.0,0 STARLINK-3667,1 51999U 22025AV  23060.89934458  .00013349  00000-0  85540-3 0  9990,2 51999  53.2143 294.2160 0000667  58.1617 301.9440 15.08832796 54283,6917.902,95.438,540.229,539.306,0.0
51999.0,STARLINK-3667,PAYLOAD,2023-03-02 00:45:49,15.08845894,7.69e-05,53.2145,293.6215,49.5525,310.5534,0.0012769,0.00020096,0.0,0 STARLINK-3667,1 51999U 22025AV  23061.03182436  .00020096  00000-0  12769-2 0  9997,2 51999  53.2145 293.6215 0000769  49.5525 310.5534 15.08845894 55817,6917.862,95.437,540.259,539.195,0.0
51999.0,STARLINK-3667,PAYLOAD,2023-03-02 19:50:26,15.08855511,0.0001003,53.2149,290.0547,57.6758,302.4331,0.00058591,9.053e-05,0.0,0 STARLINK-3667,1 51999U 22025AV  23061.82670041  .00009053  00000-0  58591-3 0  9992,2 51999  53.2149 290.0547 0001003  57.6758 302.4331 15.08855511 55935,6917.833,95.437,540.392,539.004,0.0
51999.0,STARLINK-3667,PAYLOAD,2023-03-03 00:36:36,15.08862927,9.9e-05,53.2148,289.1616,55.8059,304.3027,0.00074885,0.00011658,0.0,0 STARLINK-3667,1 51999U 22025AV  23062.02541717  .00011658  00000-0  74885-3 0  9990,2 51999  53.2148 289.1616 0000990  55.8059 304.3027 15.08862927 54456,6917.81,95.436,540.36,538.99,0.0
51999.0,STARLINK-3667,PAYLOAD,2023-03-03 21:16:36,15.08862885,9.28e-05,53.2148,285.2961,67.3679,292.7411,0.00077548,0.00012083,0.0,0 STARLINK-3667,1 51999U 22025AV  23062.88653186  .00012083  00000-0  77548-3 0  9990,2 51999  53.2148 285.2961 0000928  67.3679 292.7411 15.08862885 54587,6917.81,95.436,540.317,539.033,0.0
51999.0,STARLINK-3667,PAYLOAD,2023-03-04 00:27:22,15.08867319,8.59e-05,53.2146,284.7003,66.8564,293.2519,0.00083707,0.00013069,0.0,0 STARLINK-3667,1 51999U 22025AV  23063.01900925  .00013069  00000-0  83707-3 0  9991,2 51999  53.2146 284.7003 0000859  66.8564 293.2519 15.08867319 56119,6917.797,95.436,540.256,539.068,0.0
51999.0,STARLINK-3667,PAYLOAD,2023-03-05 00:18:10,15.08817481,6.81e-05,53.2144,280.2402,82.3584,277.7485,0.00023191,3.403e-05,0.0,0 STARLINK-3667,1 51999U 22025AV  23064.01262474  .00003403  00000-0  23191-3 0  9994,2 51999  53.2144 280.2402 0000681  82.3584 277.7485 15.08817481 56269,6917.949,95.439,540.285,539.343,0.0
51999.0,STARLINK-3667,PAYLOAD,2023-03-05 20:58:11,15.08860157,5.39e-05,53.2143,276.3746,83.2509,276.8545,0.0013994,0.00022066,0.0,0 STARLINK-3667,1 51999U 22025AV  23064.87374290  .00022066  00000-0  13994-2 0  9993,2 51999  53.2143 276.3746 0000539  83.2509 276.8545 15.08860157 56393,6917.819,95.436,540.057,539.311,0.0
51999.0,STARLINK-3667,PAYLOAD,2023-03-06 20:48:58,15.0886269,0.000198,53.214,271.9123,88.0809,272.0409,0.0014462,0.00022818,0.0,0 STARLINK-3667,1 51999U 22025AV  23065.86734096  .00022818  00000-0  14462-2 0  9993,2 51999  53.2140 271.9123 0001980  88.0809 272.0409 15.08862690 56545,6917.811,95.436,541.046,538.306,0.0
51999.0,STARLINK-3667,PAYLOAD,2023-03-07 14:18:12,15.08852421,0.0001309,53.2136,268.6418,90.743,269.3712,0.0012326,0.0001939,0.0,0 STARLINK-3667,1 51999U 22025AV  23066.59598042  .00019390  00000-0  12326-2 0  9991,2 51999  53.2136 268.6418 0001309  90.7430 269.3712 15.08852421 56654,6917.842,95.437,540.613,538.802,0.0
51999.0,STARLINK-3667,PAYLOAD,2023-03-07 22:15:08,15.08861346,0.0001293,53.2137,267.1549,90.9944,269.1197,0.0010625,0.00016672,0.0,0 STARLINK-3667,1 51999U 22025AV  23066.92717653  .00016672  00000-0  10625-2 0  9999,2 51999  53.2137 267.1549 0001293  90.9944 269.1197 15.08861346 55197,6917.815,95.436,540.575,538.786,0.0
51999.0,STARLINK-3667,PAYLOAD,2023-03-07 23:50:31,15.08855403,0.0001201,53.2124,266.8578,91.3484,268.7646,0.00052481,8.078e-05,0.0,0 STARLINK-3667,1 51999U 22025AV  23066.99341504  .00008078  00000-0  52481-3 0  9992,2 51999  53.2124 266.8578 0001201  91.3484 268.7646 15.08855403 56714,6917.833,95.437,540.529,538.867,0.0
51999.0,STARLINK-3667,PAYLOAD,2023-03-08 06:12:03,15.08843157,0.0002363,53.2134,265.6668,78.6592,281.4666,0.00043971,6.717e-05,0.0,0 STARLINK-3667,1 51999U 22025AV  23067.25837952  .00006717  00000-0  43971-3 0  9991,2 51999  53.2134 265.6668 0002363  78.6592 281.4666 15.08843157 56751,6917.871,95.437,541.37,538.101,0.0
51999.0,STARLINK-3667,PAYLOAD,2023-03-09 18:45:56,15.08843796,0.0001638,53.2115,258.828,76.8669,283.2506,0.00028904,4.316e-05,0.0,0 STARLINK-3667,1 51999U 22025AV  23068.78190076  .00004316  00000-0  28904-3 0  9991,2 51999  53.2115 258.8280 0001638  76.8669 283.2506 15.08843796 56980,6917.869,95.437,540.867,538.601,0.0
51999.0,STARLINK-3667,PAYLOAD,2023-03-09 20:21:19,15.08846178,0.00012,53.2153,258.532,70.8407,289.2715,0.00019104,2.754e-05,0.0,0 STARLINK-3667,1 51999U 22025AV  23068.84813916  .00002754  00000-0  19104-3 0  9999,2 51999  53.2153 258.5320 0001200  70.8407 289.2715 15.08846178 55482,6917.862,95.437,540.557,538.896,0.0
51999.0,STARLINK-3667,PAYLOAD,2023-03-10 18:36:43,15.08838492,0.0001461,53.2126,254.3671,78.1451,281.9705,0.00017287,2.464e-05,0.0,0 STARLINK-3667,1 51999U 22025AV  23069.77550536  .00002464  00000-0  17287-3 0  9996,2 51999  53.2126 254.3671 0001461  78.1451 281.9705 15.08838492 57136,6917.885,95.438,540.761,538.739,0.0
51999.0,STARLINK-3667,PAYLOAD,2023-03-10 21:47:29,15.08839301,0.0001462,53.2132,253.7734,74.6288,285.4866,0.000148,2.068e-05,0.0,0 STARLINK-3667,1 51999U 22025AV  23069.90798583  .00002068  00000-0  14800-3 0  9995,2 51999  53.2132 253.7734 0001462  74.6288 285.4866 15.08839301 55647,6917.883,95.438,540.759,538.736,0.0
51999.0,STARLINK-3667,PAYLOAD,2023-03-11 05:44:26,15.08833908,0.0001825,53.2136,252.2862,72.5834,287.5358,5.1382e-05,5.3e-06,0.0,0 STARLINK-3667,1 51999U 22025AV  23070.23919042  .00000530  00000-0  51382-4 0  9997,2 51999  53.2136 252.2862 0001825  72.5834 287.5358 15.08833908 57204,6917.899,95.438,541.027,538.501,0.0
51999.0,STARLINK-3667,PAYLOAD,2023-03-11 12:05:58,15.0883771,0.0001388,53.2154,251.0975,62.73,297.3833,0.000132,1.813e-05,0.0,0 STARLINK-3667,1 51999U 22025AV  23070.50414892  .00001813  00000-0  13200-3 0  9991,2 51999  53.2154 251.0975 0001388  62.7300 297.3833 15.08837710 55737,6917.887,95.438,540.713,538.792,0.0
51999.0,STARLINK-3667,PAYLOAD,2023-03-11 21:38:16,15.08847916,0.0001363,53.2147,249.3113,69.0598,291.054,0.000273,4.06e-05,0.0,0 STARLINK-3667,1 51999U 22025AV  23070.90158433  .00004060  00000-0  27300-3 0  9994,2 51999  53.2147 249.3113 0001363  69.0598 291.0540 15.08847916 55796,6917.856,95.437,540.664,538.778,0.0
51999.0,STARLINK-3667,PAYLOAD,2023-03-11 23:13:39,15.08849217,0.0001176,53.2155,249.0142,62.8264,297.2848,0.00040506,6.166e-05,0.0,0 STARLINK-3667,1 51999U 22025AV  23070.96782400  .00006166  00000-0  40506-3 0  9999,2 51999  53.2155 249.0142 0001176  62.8264 297.2848 15.08849217 57312,6917.852,95.437,540.531,538.904,0.0
51999.0,STARLINK-3667,PAYLOAD,2023-03-12 11:56:45,15.08842197,0.000117,53.2139,246.6325,85.1914,274.9212,0.00024781,3.658e-05,0.0,0 STARLINK-3667,1 51999U 22025AV  23071.49774793  .00003658  00000-0  24781-3 0  9994,2 51999  53.2139 246.6325 0001170  85.1914 274.9212 15.08842197 57399,6917.874,95.437,540.548,538.929,0.0
51999.0,STARLINK-3667,PAYLOAD,2023-03-12 21:29:04,15.08845354,0.000128,53.2153,244.8468,102.3391,257.7744,0.00023611,3.472e-05,0.0,0 STARLINK-3667,1 51999U 22025AV  23071.89518563  .00003472  00000-0  23611-3 0  9994,2 51999  53.2153 244.8468 0001280 102.3391 257.7744 15.08845354 55942,6917.864,95.437,540.615,538.844,0.0
51999.0,STARLINK-3667,PAYLOAD,2023-03-13 11:47:32,15.08841184,0.0001445,53.2161,242.172,98.7251,261.3904,0.00011351,1.519e-05,0.0,0 STARLINK-3667,1 51999U 22025AV  23072.49134703  .00001519  00000-0  11351-3 0  9999,2 51999  53.2161 242.1720 0001445  98.7251 261.3904 15.08841184 56036,6917.877,95.437,540.741,538.742,0.0
51999.0,STARLINK-3667,PAYLOAD,2023-03-13 21:19:51,15.08846459,0.0001799,53.2165,240.3901,71.1746,288.9441,0.00016559,2.349e-05,0.0,0 STARLINK-3667,1 51999U 22025AV  23072.88878567  .00002349  00000-0  16559-3 0  9992,2 51999  53.2165 240.3901 0001799  71.1746 288.9441 15.08846459 56094,6917.861,95.437,540.97,538.481,0.0
51999.0,STARLINK-3667,PAYLOAD,2023-03-14 11:38:19,15.08842416,0.000128,53.2152,237.7138,84.1871,275.9267,6.4902e-05,7.45e-06,0.0,0 STARLINK-3667,1 51999U 22025AV  23073.48494566  .00000745  00000-0  64902-4 0  9996,2 51999  53.2152 237.7138 0001280  84.1871 275.9267 15.08842416 56181,6917.873,95.437,540.623,538.853,0.0
51999.0,STARLINK-3667,PAYLOAD,2023-03-14 19:35:14,15.08853977,0.0001333,53.2145,236.2275,82.9741,277.1403,0.00030264,4.534e-05,0.0,0 STARLINK-3667,1 51999U 22025AV  23073.81614107  .00004534  00000-0  30264-3 0  9991,2 51999  53.2145 236.2275 0001333  82.9741 277.1403 15.08853977 57743,6917.838,95.437,540.625,538.781,0.0
51999.0,STARLINK-3667,PAYLOAD,2023-03-14 21:10:37,15.08856614,0.000137,53.215,235.9304,86.5002,273.6147,0.0003572,5.404e-05,0.0,0 STARLINK-3667,1 51999U 22025AV  23073.88238036  .00005404  00000-0  35720-3 0  9990,2 51999  53.2150 235.9304 0001370  86.5002 273.6147 15.08856614 56240,6917.83,95.437,540.642,538.747,0.0
51999.0,STARLINK-3667,PAYLOAD,2023-03-15 03:32:10,15.08844416,0.0001699,53.2158,234.7412,82.3103,277.8082,0.00013875,1.921e-05,0.0,0 STARLINK-3667,1 51999U 22025AV  23074.14734398  .00001921  00000-0  13875-3 0  9999,2 51999  53.2158 234.7412 0001699  82.3103 277.8082 15.08844416 57797,6917.867,95.437,540.907,538.557,0.0
51999.0,STARLINK-3667,PAYLOAD,2023-03-15 11:29:06,15.088438,0.0001324,53.2157,233.2544,85.8796,274.2348,6.5994e-05,7.63e-06,0.0,0 STARLINK-3667,1 51999U 22025AV  23074.47854285  .00000763  00000-0  65994-4 0  9996,2 51999  53.2157 233.2544 0001324  85.8796 274.2348 15.08843800 56338,6917.869,95.437,540.65,538.818,0.0
